COSMOS 1892             
1 18421U 87088A   25308.80445241  .00241718  20755-4  67192-3 0  9997
2 18421  82.4682  86.4669 0005510 301.4634  58.6101 15.93667594 85244
SL-14 R/B               
1 18749U 88001B   25308.71798073  .00000575  00000+0  63956-4 0  9995
2 18749  82.5106 312.9174 0016594 293.8625  66.0852 14.85360523 23470
COSMOS 1933             
1 18958U 88020A   25308.29443014  .00004383  00000+0  22256-3 0  9991
2 18958  82.5166  14.8492 0002882 276.7108  83.3797 15.16654304 31219
SL-3 R/B                
1 19046U 88032B   25308.83819310  .00006212  00000+0  30509-3 0  9992
2 19046  97.5038 287.8446 0025553 312.2055  47.7010 15.18142217 33154
SL-16 R/B               
1 19120U 88039B   25308.76689009  .00000041  00000+0  42348-4 0  9993
2 19120  71.0149 332.6912 0021604 178.0463 182.0750 14.19586306940655
COSMOS 1953             
1 19210U 88050A   25308.68752912  .00005989  00000+0  22920-3 0  9990
2 19210  82.5059 283.7492 0011204 193.6834 166.4103 15.26309633 18706
SL-8 R/B                
1 19257U 88053B   25308.87737243  .00000306  00000+0  10785-3 0  9999
2 19257  74.0480 342.5042 0020394 197.8478 334.8775 14.38824026958648
COSMOS 1975             
1 19573U 88093A   25308.81530005  .00010329  00000+0  40529-3 0  9990
2 19573  82.5220 242.7646 0009416 248.6405 111.3829 15.25562837   353
SL-14 R/B               
1 19574U 88093B   25308.84306721  .00000507  00000+0  55634-4 0  9991
2 19574  82.5306 159.2305 0022330  91.0727 279.8152 14.85490410982507
SL-16 R/B               
1 19650U 88102B   25308.73885078 -.00000075  00000+0 -13751-4 0  9998
2 19650  71.0009  54.3976 0015192 209.7398 150.2863 14.16130934909207
INTERCOSMOS 24          
1 20261U 89080A   25308.68617942  .00000682  00000+0  20103-3 0  9991
2 20261  82.6086 185.6966 1187786 222.8097 127.4350 12.59354183651063
SL-14 R/B               
1 20262U 89080C   25308.81884654  .00000254  00000+0  66556-4 0  9991
2 20262  82.5917 253.3556 1231472 110.2077 263.5559 12.50372709644547
