CCSDS_OMM_VERS = 2.0
CREATION_DATE  = 
ORIGINATOR     = 

OBJECT_NAME    = COSMOS 1892
OBJECT_ID      = 1987-088A
CENTER_NAME    = EARTH
REF_FRAME      = TEME
TIME_SYSTEM    = UTC
MEAN_ELEMENT_THEORY = SGP/SGP4

EPOCH          = 2025-11-04T19:18:24.688224
MEAN_MOTION    = 15.93667594
ECCENTRICITY   = .000551
INCLINATION    = 82.4682
RA_OF_ASC_NODE = 86.4669
ARG_OF_PERICENTER = 301.4634
MEAN_ANOMALY   = 58.6101

EPHEMERIS_TYPE = 0
CLASSIFICATION_TYPE = U
NORAD_CAT_ID   = 18421
ELEMENT_SET_NO = 999
REV_AT_EPOCH   = 8524
BSTAR          = .67192E-3
MEAN_MOTION_DOT = .241718E-2
MEAN_MOTION_DDOT = .20755E-4

CCSDS_OMM_VERS = 2.0
CREATION_DATE  = 
ORIGINATOR     = 

OBJECT_NAME    = SL-14 R/B
OBJECT_ID      = 1988-001B
CENTER_NAME    = EARTH
REF_FRAME      = TEME
TIME_SYSTEM    = UTC
MEAN_ELEMENT_THEORY = SGP/SGP4

EPOCH          = 2025-11-04T17:13:53.535072
MEAN_MOTION    = 14.85360523
ECCENTRICITY   = .0016594
INCLINATION    = 82.5106
RA_OF_ASC_NODE = 312.9174
ARG_OF_PERICENTER = 293.8625
MEAN_ANOMALY   = 66.0852

EPHEMERIS_TYPE = 0
CLASSIFICATION_TYPE = U
NORAD_CAT_ID   = 18749
ELEMENT_SET_NO = 999
REV_AT_EPOCH   = 2347
BSTAR          = .63956E-4
MEAN_MOTION_DOT = .575E-5
MEAN_MOTION_DDOT = 0

CCSDS_OMM_VERS = 2.0
CREATION_DATE  = 
ORIGINATOR     = 

OBJECT_NAME    = COSMOS 1933
OBJECT_ID      = 1988-020A
CENTER_NAME    = EARTH
REF_FRAME      = TEME
TIME_SYSTEM    = UTC
MEAN_ELEMENT_THEORY = SGP/SGP4

EPOCH          = 2025-11-04T07:03:58.764096
MEAN_MOTION    = 15.16654304
ECCENTRICITY   = .0002882
INCLINATION    = 82.5166
RA_OF_ASC_NODE = 14.8492
ARG_OF_PERICENTER = 276.7108
MEAN_ANOMALY   = 83.3797

EPHEMERIS_TYPE = 0
CLASSIFICATION_TYPE = U
NORAD_CAT_ID   = 18958
ELEMENT_SET_NO = 999
REV_AT_EPOCH   = 3121
BSTAR          = .22256E-3
MEAN_MOTION_DOT = .4383E-4
MEAN_MOTION_DDOT = 0

CCSDS_OMM_VERS = 2.0
CREATION_DATE  = 
ORIGINATOR     = 

OBJECT_NAME    = SL-3 R/B
OBJECT_ID      = 1988-032B
CENTER_NAME    = EARTH
REF_FRAME      = TEME
TIME_SYSTEM    = UTC
MEAN_ELEMENT_THEORY = SGP/SGP4

EPOCH          = 2025-11-04T20:06:59.883840
MEAN_MOTION    = 15.18142217
ECCENTRICITY   = .0025553
INCLINATION    = 97.5038
RA_OF_ASC_NODE = 287.8446
ARG_OF_PERICENTER = 312.2055
MEAN_ANOMALY   = 47.7010

EPHEMERIS_TYPE = 0
CLASSIFICATION_TYPE = U
NORAD_CAT_ID   = 19046
ELEMENT_SET_NO = 999
REV_AT_EPOCH   = 3315
BSTAR          = .30509E-3
MEAN_MOTION_DOT = .6212E-4
MEAN_MOTION_DDOT = 0

CCSDS_OMM_VERS = 2.0
CREATION_DATE  = 
ORIGINATOR     = 

OBJECT_NAME    = SL-16 R/B
OBJECT_ID      = 1988-039B
CENTER_NAME    = EARTH
REF_FRAME      = TEME
TIME_SYSTEM    = UTC
MEAN_ELEMENT_THEORY = SGP/SGP4

EPOCH          = 2025-11-04T18:24:19.303776
MEAN_MOTION    = 14.19586306
ECCENTRICITY   = .0021604
INCLINATION    = 71.0149
RA_OF_ASC_NODE = 332.6912
ARG_OF_PERICENTER = 178.0463
MEAN_ANOMALY   = 182.0750

EPHEMERIS_TYPE = 0
CLASSIFICATION_TYPE = U
NORAD_CAT_ID   = 19120
ELEMENT_SET_NO = 999
REV_AT_EPOCH   = 94065
BSTAR          = .42348E-4
MEAN_MOTION_DOT = .41E-6
MEAN_MOTION_DDOT = 0

CCSDS_OMM_VERS = 2.0
CREATION_DATE  = 
ORIGINATOR     = 

OBJECT_NAME    = COSMOS 1953
OBJECT_ID      = 1988-050A
CENTER_NAME    = EARTH
REF_FRAME      = TEME
TIME_SYSTEM    = UTC
MEAN_ELEMENT_THEORY = SGP/SGP4

EPOCH          = 2025-11-04T16:30:02.515968
MEAN_MOTION    = 15.26309633
ECCENTRICITY   = .0011204
INCLINATION    = 82.5059
RA_OF_ASC_NODE = 283.7492
ARG_OF_PERICENTER = 193.6834
MEAN_ANOMALY   = 166.4103

EPHEMERIS_TYPE = 0
CLASSIFICATION_TYPE = U
NORAD_CAT_ID   = 19210
ELEMENT_SET_NO = 999
REV_AT_EPOCH   = 1870
BSTAR          = .2292E-3
MEAN_MOTION_DOT = .5989E-4
MEAN_MOTION_DDOT = 0

CCSDS_OMM_VERS = 2.0
CREATION_DATE  = 
ORIGINATOR     = 

OBJECT_NAME    = SL-8 R/B
OBJECT_ID      = 1988-053B
CENTER_NAME    = EARTH
REF_FRAME      = TEME
TIME_SYSTEM    = UTC
MEAN_ELEMENT_THEORY = SGP/SGP4

EPOCH          = 2025-11-04T21:03:24.977952
MEAN_MOTION    = 14.38824026
ECCENTRICITY   = .0020394
INCLINATION    = 74.0480
RA_OF_ASC_NODE = 342.5042
ARG_OF_PERICENTER = 197.8478
MEAN_ANOMALY   = 334.8775

EPHEMERIS_TYPE = 0
CLASSIFICATION_TYPE = U
NORAD_CAT_ID   = 19257
ELEMENT_SET_NO = 999
REV_AT_EPOCH   = 95864
BSTAR          = .10785E-3
MEAN_MOTION_DOT = .306E-5
MEAN_MOTION_DDOT = 0

CCSDS_OMM_VERS = 2.0
CREATION_DATE  = 
ORIGINATOR     = 

OBJECT_NAME    = COSMOS 1975
OBJECT_ID      = 1988-093A
CENTER_NAME    = EARTH
REF_FRAME      = TEME
TIME_SYSTEM    = UTC
MEAN_ELEMENT_THEORY = SGP/SGP4

EPOCH          = 2025-11-04T19:34:01.924320
MEAN_MOTION    = 15.25562837
ECCENTRICITY   = .0009416
INCLINATION    = 82.5220
RA_OF_ASC_NODE = 242.7646
ARG_OF_PERICENTER = 248.6405
MEAN_ANOMALY   = 111.3829

EPHEMERIS_TYPE = 0
CLASSIFICATION_TYPE = U
NORAD_CAT_ID   = 19573
ELEMENT_SET_NO = 999
REV_AT_EPOCH   = 35
BSTAR          = .40529E-3
MEAN_MOTION_DOT = .10329E-3
MEAN_MOTION_DDOT = 0

CCSDS_OMM_VERS = 2.0
CREATION_DATE  = 
ORIGINATOR     = 

OBJECT_NAME    = SL-14 R/B
OBJECT_ID      = 1988-093B
CENTER_NAME    = EARTH
REF_FRAME      = TEME
TIME_SYSTEM    = UTC
MEAN_ELEMENT_THEORY = SGP/SGP4

EPOCH          = 2025-11-04T20:14:01.006944
MEAN_MOTION    = 14.85490410
ECCENTRICITY   = .002233
INCLINATION    = 82.5306
RA_OF_ASC_NODE = 159.2305
ARG_OF_PERICENTER = 91.0727
MEAN_ANOMALY   = 279.8152

EPHEMERIS_TYPE = 0
CLASSIFICATION_TYPE = U
NORAD_CAT_ID   = 19574
ELEMENT_SET_NO = 999
REV_AT_EPOCH   = 98250
BSTAR          = .55634E-4
MEAN_MOTION_DOT = .507E-5
MEAN_MOTION_DDOT = 0

CCSDS_OMM_VERS = 2.0
CREATION_DATE  = 
ORIGINATOR     = 

OBJECT_NAME    = SL-16 R/B
OBJECT_ID      = 1988-102B
CENTER_NAME    = EARTH
REF_FRAME      = TEME
TIME_SYSTEM    = UTC
MEAN_ELEMENT_THEORY = SGP/SGP4

EPOCH          = 2025-11-04T17:43:56.707392
MEAN_MOTION    = 14.16130934
ECCENTRICITY   = .0015192
INCLINATION    = 71.0009
RA_OF_ASC_NODE = 54.3976
ARG_OF_PERICENTER = 209.7398
MEAN_ANOMALY   = 150.2863

EPHEMERIS_TYPE = 0
CLASSIFICATION_TYPE = U
NORAD_CAT_ID   = 19650
ELEMENT_SET_NO = 999
REV_AT_EPOCH   = 90920
BSTAR          = -.13751E-4
MEAN_MOTION_DOT = -.75E-6
MEAN_MOTION_DDOT = 0

CCSDS_OMM_VERS = 2.0
CREATION_DATE  = 
ORIGINATOR     = 

OBJECT_NAME    = INTERCOSMOS 24
OBJECT_ID      = 1989-080A
CENTER_NAME    = EARTH
REF_FRAME      = TEME
TIME_SYSTEM    = UTC
MEAN_ELEMENT_THEORY = SGP/SGP4

EPOCH          = 2025-11-04T16:28:05.901888
MEAN_MOTION    = 12.59354183
ECCENTRICITY   = .1187786
INCLINATION    = 82.6086
RA_OF_ASC_NODE = 185.6966
ARG_OF_PERICENTER = 222.8097
MEAN_ANOMALY   = 127.4350

EPHEMERIS_TYPE = 0
CLASSIFICATION_TYPE = U
NORAD_CAT_ID   = 20261
ELEMENT_SET_NO = 999
REV_AT_EPOCH   = 65106
BSTAR          = .20103E-3
MEAN_MOTION_DOT = .682E-5
MEAN_MOTION_DDOT = 0

CCSDS_OMM_VERS = 2.0
CREATION_DATE  = 
ORIGINATOR     = 

OBJECT_NAME    = SL-14 R/B
OBJECT_ID      = 1989-080C
CENTER_NAME    = EARTH
REF_FRAME      = TEME
TIME_SYSTEM    = UTC
MEAN_ELEMENT_THEORY = SGP/SGP4

EPOCH          = 2025-11-04T19:39:08.341056
MEAN_MOTION    = 12.50372709
ECCENTRICITY   = .1231472
INCLINATION    = 82.5917
RA_OF_ASC_NODE = 253.3556
ARG_OF_PERICENTER = 110.2077
MEAN_ANOMALY   = 263.5559

EPHEMERIS_TYPE = 0
CLASSIFICATION_TYPE = U
NORAD_CAT_ID   = 20262
ELEMENT_SET_NO = 999
REV_AT_EPOCH   = 64454
BSTAR          = .66556E-4
MEAN_MOTION_DOT = .254E-5
MEAN_MOTION_DDOT = 0

